{
  "type": "FeatureCollection",
  "features": [
    {
      "type": "Feature",
      "properties": {
        "parcel_id": "DEL-01"
      },
      "geometry": {
        "type": "Polygon",
        "coordinates": [
          [
            [
              77.1,
              28.6
            ],
            [
              77.105,
              28.6
            ],
            [
              77.105,
              28.605
            ],
            [
              77.1,
              28.605
            ],
            [
              77.1,
              28.6
            ]
          ]
        ]
      }
    }
  ]
}